NORAD_CAT_ID,OBJECT_NAME,OBJECT_TYPE,EPOCH,MEAN_MOTION,ECCENTRICITY,INCLINATION,RA_OF_ASC_NODE,ARG_OF_PERICENTER,MEAN_ANOMALY,BSTAR,MEAN_MOTION_DOT,MEAN_MOTION_DDOT,TLE_LINE0,TLE_LINE1,TLE_LINE2,SEMIMAJOR_AXIS,PERIOD,APOGEE,PERIGEE,DECAYED
53020.0,STARLINK-4287,PAYLOAD,2024-05-19 08:04:45,15.08833103,0.0001617,53.2154,164.0693,112.6527,247.4636,-8.7422e-05,-1.679e-05,0.0,0 STARLINK-4287,1 53020U 22076AL  24140.33663643 -.00001679  00000-0 -87422-4 0  9994,2 53020  53.2154 164.0693 0001617 112.6527 247.4636 15.08833103103446,6917.901,95.438,540.885,538.648,0.0
53020.0,STARLINK-4287,PAYLOAD,2024-05-20 04:44:45,15.0884204,0.0001562,53.2161,160.2042,99.3141,260.8028,0.00014608,2.038e-05,0.0,0 STARLINK-4287,1 53020U 22076AL  24141.19775183  .00002038  00000-0  14608-3 0  9995,2 53020  53.2161 160.2042 0001562  99.3141 260.8028 15.08842040104043,6917.874,95.437,540.82,538.659,0.0
53020.0,STARLINK-4287,PAYLOAD,2024-05-20 07:55:32,15.08843909,0.0001654,53.2155,159.6093,102.5841,257.5336,0.00024848,3.669e-05,0.0,0 STARLINK-4287,1 53020U 22076AL  24141.33023457  .00003669  00000-0  24848-3 0  9999,2 53020  53.2155 159.6093 0001654 102.5841 257.5336 15.08843909103599,6917.868,95.437,540.878,538.589,0.0
53020.0,STARLINK-4287,PAYLOAD,2024-05-21 04:35:33,15.08837978,0.0001664,53.2157,155.7452,90.2204,269.8979,0.00014268,1.983e-05,0.0,0 STARLINK-4287,1 53020U 22076AL  24142.19135886  .00001983  00000-0  14268-3 0  9996,2 53020  53.2157 155.7452 0001664  90.2204 269.8979 15.08837978104199,6917.887,95.438,540.903,538.6,0.0
53020.0,STARLINK-4287,PAYLOAD,2024-05-21 07:46:19,15.08835858,0.0001603,53.2168,155.1508,91.8055,268.312,0.0001288,1.762e-05,0.0,0 STARLINK-4287,1 53020U 22076AL  24142.32383993  .00001762  00000-0  12880-3 0  9998,2 53020  53.2168 155.1508 0001603  91.8055 268.3120 15.08835858103748,6917.893,95.438,540.867,538.649,0.0
53020.0,STARLINK-4287,PAYLOAD,2024-05-22 07:37:06,15.08843562,0.0001587,53.2164,150.6869,99.1272,260.99,2.1386e-05,5.2e-07,0.0,0 STARLINK-4287,1 53020U 22076AL  24143.31743654  .00000052  00000-0  21386-4 0  9995,2 53020  53.2164 150.6869 0001587  99.1272 260.9900 15.08843562104361,6917.87,95.437,540.832,538.637,0.0
53020.0,STARLINK-4287,PAYLOAD,2024-05-23 10:38:40,15.08814518,0.0001772,53.2168,145.6308,107.1279,252.9907,0.00035182,5.312e-05,0.0,0 STARLINK-4287,1 53020U 22076AL  24144.44352771  .00005312  00000-0  35182-3 0  9998,2 53020  53.2168 145.6308 0001772 107.1279 252.9907 15.08814518104536,6917.958,95.439,541.049,538.597,0.0
53020.0,STARLINK-4287,PAYLOAD,2024-05-24 04:07:54,15.0884236,0.0001527,53.2169,142.3611,110.2597,249.856,6.0497e-05,6.75e-06,0.0,0 STARLINK-4287,1 53020U 22076AL  24145.17215739  .00000675  00000-0  60497-4 0  9996,2 53020  53.2169 142.3611 0001527 110.2597 249.8560 15.08842360104642,6917.873,95.437,540.795,538.682,0.0
53020.0,STARLINK-4287,PAYLOAD,2024-05-24 08:54:03,15.08842184,0.0001499,53.2166,141.4704,91.3955,268.7209,7.8323e-05,9.59e-06,0.0,0 STARLINK-4287,1 53020U 22076AL  24145.37087784  .00000959  00000-0  78323-4 0  9997,2 53020  53.2166 141.4704 0001499  91.3955 268.7209 15.08842184104203,6917.874,95.437,540.776,538.702,0.0
53020.0,STARLINK-4287,PAYLOAD,2024-05-25 05:34:05,15.08837414,0.0001506,53.2164,137.6048,102.9404,257.1756,3.6866e-05,2.99e-06,0.0,0 STARLINK-4287,1 53020U 22076AL  24146.23200235  .00000299  00000-0  36866-4 0  9994,2 53020  53.2164 137.6048 0001506 102.9404 257.1756 15.08837414104801,6917.888,95.438,540.795,538.711,0.0
53020.0,STARLINK-4287,PAYLOAD,2024-05-25 08:44:51,15.08838153,0.000147,53.2163,137.0104,92.7705,267.3455,4.077e-05,3.61e-06,0.0,0 STARLINK-4287,1 53020U 22076AL  24146.36448262  .00000361  00000-0  40770-4 0  9991,2 53020  53.2163 137.0104 0001470  92.7705 267.3455 15.08838153104357,6917.886,95.438,540.768,538.734,0.0
53020.0,STARLINK-4287,PAYLOAD,2024-05-25 16:41:46,15.08847155,0.0001106,53.2166,135.5235,112.0397,248.0712,0.00012811,1.752e-05,0.0,0 STARLINK-4287,1 53020U 22076AL  24146.69567302  .00001752  00000-0  12811-3 0  9993,2 53020  53.2166 135.5235 0001106 112.0397 248.0712 15.08847155104878,6917.859,95.437,540.489,538.958,0.0
53020.0,STARLINK-4287,PAYLOAD,2024-05-26 05:24:51,15.08843991,0.0001436,53.2161,133.1453,89.0534,271.0623,7.4205e-05,8.93e-06,0.0,0 STARLINK-4287,1 53020U 22076AL  24147.22559774  .00000893  00000-0  74205-4 0  9998,2 53020  53.2161 133.1453 0001436  89.0534 271.0623 15.08843991104951,6917.868,95.437,540.727,538.74,0.0
53020.0,STARLINK-4287,PAYLOAD,2024-05-26 08:35:37,15.08846279,0.0001476,53.2163,132.5505,88.5116,271.6046,7.8195e-05,9.57e-06,0.0,0 STARLINK-4287,1 53020U 22076AL  24147.35807606  .00000957  00000-0  78195-4 0  9995,2 53020  53.2163 132.5505 0001476  88.5116 271.6046 15.08846279104506,6917.861,95.437,540.747,538.705,0.0
53020.0,STARLINK-4287,PAYLOAD,2024-05-26 22:54:06,15.08852812,0.0001839,53.2158,129.876,89.847,270.2733,-0.00013861,-2.494e-05,0.0,0 STARLINK-4287,1 53020U 22076AL  24147.95423949 -.00002494  00000-0 -13861-3 0  9993,2 53020  53.2158 129.8760 0001839  89.8470 270.2733 15.08852812104599,6917.841,95.437,540.978,538.434,0.0
53020.0,STARLINK-4287,PAYLOAD,2024-05-27 05:15:38,15.0884898,0.000172,53.2167,128.6851,97.511,262.6077,-3.7822e-05,-8.9e-06,0.0,0 STARLINK-4287,1 53020U 22076AL  24148.21919686 -.00000890  00000-0 -37822-4 0  9993,2 53020  53.2167 128.6851 0001720  97.5110 262.6077 15.08848980104635,6917.853,95.437,540.908,538.528,0.0
53020.0,STARLINK-4287,PAYLOAD,2024-05-28 05:06:26,15.08838868,0.0001715,53.2177,124.2253,107.7317,252.3863,4.5261e-06,-2.16e-06,0.0,0 STARLINK-4287,1 53020U 22076AL  24149.21280176 -.00000216  00000-0  45261-5 0  9997,2 53020  53.2177 124.2253 0001715 107.7317 252.3863 15.08838868105253,6917.884,95.438,540.935,538.562,0.0
53020.0,STARLINK-4287,PAYLOAD,2024-05-29 04:57:13,15.08835781,0.00016,53.2175,119.7644,104.7657,255.3512,1.1293e-05,-1.08e-06,0.0,0 STARLINK-4287,1 53020U 22076AL  24150.20640459 -.00000108  00000-0  11293-4 0  9999,2 53020  53.2175 119.7644 0001600 104.7657 255.3512 15.08835781104930,6917.893,95.438,540.865,538.651,0.0
53020.0,STARLINK-4287,PAYLOAD,2024-05-29 22:26:28,15.08835046,0.0001562,53.2175,116.4926,104.8582,255.2584,4.4566e-05,4.21e-06,0.0,0 STARLINK-4287,1 53020U 22076AL  24150.93504690  .00000421  00000-0  44566-4 0  9991,2 53020  53.2175 116.4926 0001562 104.8582 255.2584 15.08835046105047,6917.896,95.438,540.841,538.68,0.0
53020.0,STARLINK-4287,PAYLOAD,2024-05-30 04:48:00,15.08836721,0.0001512,53.2175,115.3033,100.6343,259.4819,5.3761e-05,5.68e-06,0.0,0 STARLINK-4287,1 53020U 22076AL  24151.20000655  .00000568  00000-0  53761-4 0  9993,2 53020  53.2175 115.3033 0001512 100.6343 259.4819 15.08836721105552,6917.89,95.438,540.801,538.709,0.0
53020.0,STARLINK-4287,PAYLOAD,2024-05-31 06:14:10,15.08839714,0.0001495,53.2179,110.5428,88.3594,271.757,7.9356e-05,9.75e-06,0.0,0 STARLINK-4287,1 53020U 22076AL  24152.25984740  .00000975  00000-0  79356-4 0  9995,2 53020  53.2179 110.5428 0001495  88.3594 271.7570 15.08839714105715,6917.881,95.438,540.78,538.712,0.0
53020.0,STARLINK-4287,PAYLOAD,2024-06-01 14:01:53,15.08837972,0.0001484,53.2181,104.5995,80.0778,280.0382,2.2906e-05,7.7e-07,0.0,0 STARLINK-4287,1 53020U 22076AL  24153.58465211  .00000077  00000-0  22906-4 0  9991,2 53020  53.2181 104.5995 0001484  80.0778 280.0382 15.08837972105449,6917.887,95.438,540.778,538.725,0.0
53020.0,STARLINK-4287,PAYLOAD,2024-06-02 13:52:40,15.08842478,0.0001424,53.2176,100.1399,79.8561,280.2592,4.7167e-05,4.63e-06,0.0,0 STARLINK-4287,1 53020U 22076AL  24154.57824981  .00000463  00000-0  47167-4 0  9999,2 53020  53.2176 100.1399 0001424  79.8561 280.2592 15.08842478105591,6917.873,95.437,540.723,538.753,0.0
53020.0,STARLINK-4287,PAYLOAD,2024-06-02 20:14:13,15.08840009,0.0001308,53.2169,98.951,81.4195,278.6945,6.7539e-05,7.87e-06,0.0,0 STARLINK-4287,1 53020U 22076AL  24154.84321011  .00000787  00000-0  67539-4 0  9999,2 53020  53.2169  98.9510 0001308  81.4195 278.6945 15.08840009106104,6917.88,95.438,540.65,538.841,0.0
53020.0,STARLINK-4287,PAYLOAD,2024-06-03 05:46:31,15.08849275,0.0001341,53.2171,97.1662,83.7239,276.3906,8.0253e-05,9.9e-06,0.0,0 STARLINK-4287,1 53020U 22076AL  24155.24064429  .00000990  00000-0  80253-4 0  9995,2 53020  53.2171  97.1662 0001341  83.7239 276.3906 15.08849275106169,6917.852,95.437,540.645,538.789,0.0
53020.0,STARLINK-4287,PAYLOAD,2024-06-03 13:43:27,15.08847781,0.0001346,53.2177,95.6796,85.6644,274.4502,4.9379e-05,4.98e-06,0.0,0 STARLINK-4287,1 53020U 22076AL  24155.57184522  .00000498  00000-0  49379-4 0  9995,2 53020  53.2177  95.6796 0001346  85.6644 274.4502 15.08847781105746,6917.857,95.437,540.653,538.79,0.0
53020.0,STARLINK-4287,PAYLOAD,2024-06-03 20:05:00,15.08839368,0.0001608,53.2161,94.4881,92.9537,267.164,8.2632e-05,1.027e-05,0.0,0 STARLINK-4287,1 53020U 22076AL  24155.83681033  .00001027  00000-0  82632-4 0  9991,2 53020  53.2161  94.4881 0001608  92.9537 267.1640 15.08839368106255,6917.882,95.438,540.86,538.635,0.0
53020.0,STARLINK-4287,PAYLOAD,2024-06-04 05:37:18,15.08846001,0.000152,53.2184,92.7054,95.3567,264.7599,8.3857e-05,1.047e-05,0.0,0 STARLINK-4287,1 53020U 22076AL  24156.23424635  .00001047  00000-0  83857-4 0  9991,2 53020  53.2184  92.7054 0001520  95.3567 264.7599 15.08846001105848,6917.862,95.437,540.779,538.676,0.0
53020.0,STARLINK-4287,PAYLOAD,2024-06-04 23:06:33,15.08837913,0.0001526,53.2192,89.4325,104.833,255.2831,5.627e-05,6.08e-06,0.0,0 STARLINK-4287,1 53020U 22076AL  24156.96289126  .00000608  00000-0  56270-4 0  9996,2 53020  53.2192  89.4325 0001526 104.8330 255.2831 15.08837913105959,6917.887,95.438,540.807,538.696,0.0
53020.0,STARLINK-4287,PAYLOAD,2024-06-05 02:17:19,15.08845286,0.00014,53.2172,88.8377,91.5984,268.5169,4.7721e-05,4.72e-06,0.0,0 STARLINK-4287,1 53020U 22076AL  24157.09536701  .00000472  00000-0  47721-4 0  9995,2 53020  53.2172  88.8377 0001400  91.5984 268.5169 15.08845286106443,6917.864,95.437,540.698,538.761,0.0
